[{"CCSDS_OMM_VERS":"2.0","COMMENT":"GENERATED VIA SPACE-TRACK.ORG API","CREATION_DATE":"2023-06-07T06:26:13","ORIGINATOR":"18 SPCS","OBJECT_NAME":"KSF3-C","OBJECT_ID":"2023-001K","CENTER_NAME":"EARTH","REF_FRAME":"TEME","TIME_SYSTEM":"UTC","MEAN_ELEMENT_THEORY":"SGP4","EPOCH":"2023-06-07T03:29:19.511808","MEAN_MOTION":"15.16652332","ECCENTRICITY":"0.00113520","INCLINATION":"97.4768","RA_OF_ASC_NODE":"217.8306","ARG_OF_PERICENTER":"57.6294","MEAN_ANOMALY":"302.6036","EPHEMERIS_TYPE":"0","CLASSIFICATION_TYPE":"U","NORAD_CAT_ID":"55018","ELEMENT_SET_NO":"999","REV_AT_EPOCH":"2354","BSTAR":"0.00055350000000","MEAN_MOTION_DOT":"0.00010787","MEAN_MOTION_DDOT":"0.0000000000000","SEMIMAJOR_AXIS":"6894.104","PERIOD":"94.946","APOAPSIS":"523.795","PERIAPSIS":"508.143","OBJECT_TYPE":"PAYLOAD","RCS_SIZE":"MEDIUM","COUNTRY_CODE":"LUXE","LAUNCH_DATE":"2023-01-03","SITE":"AFETR","DECAY_DATE":null,"FILE":"3926631","GP_ID":"233363868","TLE_LINE0":"0 KSF3-C","TLE_LINE1":"1 55018U 23001K   23158.14536472  .00010787  00000-0  55350-3 0  9990","TLE_LINE2":"2 55018  97.4768 217.8306 0011352  57.6294 302.6036 15.16652332 23542"},{"CCSDS_OMM_VERS":"2.0","COMMENT":"GENERATED VIA SPACE-TRACK.ORG API","CREATION_DATE":"2023-06-07T14:26:13","ORIGINATOR":"18 SPCS","OBJECT_NAME":"KSF3-C","OBJECT_ID":"2023-001K","CENTER_NAME":"EARTH","REF_FRAME":"TEME","TIME_SYSTEM":"UTC","MEAN_ELEMENT_THEORY":"SGP4","EPOCH":"2023-06-07T11:24:21.317472","MEAN_MOTION":"15.16658942","ECCENTRICITY":"0.00112870","INCLINATION":"97.4768","RA_OF_ASC_NODE":"218.1559","ARG_OF_PERICENTER":"56.4991","MEAN_ANOMALY":"303.7319","EPHEMERIS_TYPE":"0","CLASSIFICATION_TYPE":"U","NORAD_CAT_ID":"55018","ELEMENT_SET_NO":"999","REV_AT_EPOCH":"2359","BSTAR":"0.00053861000000","MEAN_MOTION_DOT":"0.00010497","MEAN_MOTION_DDOT":"0.0000000000000","SEMIMAJOR_AXIS":"6894.084","PERIOD":"94.946","APOAPSIS":"523.730","PERIAPSIS":"508.167","OBJECT_TYPE":"PAYLOAD","RCS_SIZE":"MEDIUM","COUNTRY_CODE":"LUXE","LAUNCH_DATE":"2023-01-03","SITE":"AFETR","DECAY_DATE":null,"FILE":"3926970","GP_ID":"233371672","TLE_LINE0":"0 KSF3-C","TLE_LINE1":"1 55018U 23001K   23158.47524673  .00010497  00000-0  53861-3 0  9999","TLE_LINE2":"2 55018  97.4768 218.1559 0011287  56.4991 303.7319 15.16658942 23598"},{"CCSDS_OMM_VERS":"2.0","COMMENT":"GENERATED VIA SPACE-TRACK.ORG API","CREATION_DATE":"2023-06-07T18:30:01","ORIGINATOR":"18 SPCS","OBJECT_NAME":"KSF3-C","OBJECT_ID":"2023-001K","CENTER_NAME":"EARTH","REF_FRAME":"TEME","TIME_SYSTEM":"UTC","MEAN_ELEMENT_THEORY":"SGP4","EPOCH":"2023-06-07T12:59:21.660288","MEAN_MOTION":"15.16661316","ECCENTRICITY":"0.00112770","INCLINATION":"97.4768","RA_OF_ASC_NODE":"218.2210","ARG_OF_PERICENTER":"56.2206","MEAN_ANOMALY":"304.0100","EPHEMERIS_TYPE":"0","CLASSIFICATION_TYPE":"U","NORAD_CAT_ID":"55018","ELEMENT_SET_NO":"999","REV_AT_EPOCH":"2360","BSTAR":"0.00057103000000","MEAN_MOTION_DOT":"0.00011134","MEAN_MOTION_DDOT":"0.0000000000000","SEMIMAJOR_AXIS":"6894.077","PERIOD":"94.945","APOAPSIS":"523.716","PERIAPSIS":"508.167","OBJECT_TYPE":"PAYLOAD","RCS_SIZE":"MEDIUM","COUNTRY_CODE":"LUXE","LAUNCH_DATE":"2023-01-03","SITE":"AFETR","DECAY_DATE":null,"FILE":"3927174","GP_ID":"233402310","TLE_LINE0":"0 KSF3-C","TLE_LINE1":"1 55018U 23001K   23158.54122292  .00011134  00000-0  57103-3 0  9990","TLE_LINE2":"2 55018  97.4768 218.2210 0011277  56.2206 304.0100 15.16661316 23602"},{"CCSDS_OMM_VERS":"2.0","COMMENT":"GENERATED VIA SPACE-TRACK.ORG API","CREATION_DATE":"2023-06-07T22:26:13","ORIGINATOR":"18 SPCS","OBJECT_NAME":"KSF3-C","OBJECT_ID":"2023-001K","CENTER_NAME":"EARTH","REF_FRAME":"TEME","TIME_SYSTEM":"UTC","MEAN_ELEMENT_THEORY":"SGP4","EPOCH":"2023-06-07T17:44:22.670592","MEAN_MOTION":"15.16665541","ECCENTRICITY":"0.00112540","INCLINATION":"97.4767","RA_OF_ASC_NODE":"218.4162","ARG_OF_PERICENTER":"55.5653","MEAN_ANOMALY":"304.6642","EPHEMERIS_TYPE":"0","CLASSIFICATION_TYPE":"U","NORAD_CAT_ID":"55018","ELEMENT_SET_NO":"999","REV_AT_EPOCH":"2363","BSTAR":"0.00056148000000","MEAN_MOTION_DOT":"0.00010948","MEAN_MOTION_DDOT":"0.0000000000000","SEMIMAJOR_AXIS":"6894.064","PERIOD":"94.945","APOAPSIS":"523.687","PERIAPSIS":"508.170","OBJECT_TYPE":"PAYLOAD","RCS_SIZE":"MEDIUM","COUNTRY_CODE":"LUXE","LAUNCH_DATE":"2023-01-03","SITE":"AFETR","DECAY_DATE":null,"FILE":"3927243","GP_ID":"233404386","TLE_LINE0":"0 KSF3-C","TLE_LINE1":"1 55018U 23001K   23158.73915128  .00010948  00000-0  56148-3 0  9999","TLE_LINE2":"2 55018  97.4767 218.4162 0011254  55.5653 304.6642 15.16665541 23636"},{"CCSDS_OMM_VERS":"2.0","COMMENT":"GENERATED VIA SPACE-TRACK.ORG API","CREATION_DATE":"2023-06-08T03:08:27","ORIGINATOR":"18 SPCS","OBJECT_NAME":"KSF3-C","OBJECT_ID":"2023-001K","CENTER_NAME":"EARTH","REF_FRAME":"TEME","TIME_SYSTEM":"UTC","MEAN_ELEMENT_THEORY":"SGP4","EPOCH":"2023-06-07T22:29:23.629920","MEAN_MOTION":"15.16669865","ECCENTRICITY":"0.00112200","INCLINATION":"97.4766","RA_OF_ASC_NODE":"218.6115","ARG_OF_PERICENTER":"54.9131","MEAN_ANOMALY":"305.3153","EPHEMERIS_TYPE":"0","CLASSIFICATION_TYPE":"U","NORAD_CAT_ID":"55018","ELEMENT_SET_NO":"999","REV_AT_EPOCH":"2366","BSTAR":"0.00057400000000","MEAN_MOTION_DOT":"0.00011195","MEAN_MOTION_DDOT":"0.0000000000000","SEMIMAJOR_AXIS":"6894.051","PERIOD":"94.945","APOAPSIS":"523.651","PERIAPSIS":"508.181","OBJECT_TYPE":"PAYLOAD","RCS_SIZE":"MEDIUM","COUNTRY_CODE":"LUXE","LAUNCH_DATE":"2023-01-03","SITE":"AFETR","DECAY_DATE":null,"FILE":"3927436","GP_ID":"233435023","TLE_LINE0":"0 KSF3-C","TLE_LINE1":"1 55018U 23001K   23158.93707905  .00011195  00000-0  57400-3 0  9990","TLE_LINE2":"2 55018  97.4766 218.6115 0011220  54.9131 305.3153 15.16669865 23663"},{"CCSDS_OMM_VERS":"2.0","COMMENT":"GENERATED VIA SPACE-TRACK.ORG API","CREATION_DATE":"2023-06-08T06:26:13","ORIGINATOR":"18 SPCS","OBJECT_NAME":"KSF3-C","OBJECT_ID":"2023-001K","CENTER_NAME":"EARTH","REF_FRAME":"TEME","TIME_SYSTEM":"UTC","MEAN_ELEMENT_THEORY":"SGP4","EPOCH":"2023-06-08T03:14:24.542592","MEAN_MOTION":"15.16674610","ECCENTRICITY":"0.00112040","INCLINATION":"97.4766","RA_OF_ASC_NODE":"218.8067","ARG_OF_PERICENTER":"54.2472","MEAN_ANOMALY":"305.9802","EPHEMERIS_TYPE":"0","CLASSIFICATION_TYPE":"U","NORAD_CAT_ID":"55018","ELEMENT_SET_NO":"999","REV_AT_EPOCH":"2369","BSTAR":"0.00057853000000","MEAN_MOTION_DOT":"0.00011285","MEAN_MOTION_DDOT":"0.0000000000000","SEMIMAJOR_AXIS":"6894.036","PERIOD":"94.945","APOAPSIS":"523.625","PERIAPSIS":"508.177","OBJECT_TYPE":"PAYLOAD","RCS_SIZE":"MEDIUM","COUNTRY_CODE":"LUXE","LAUNCH_DATE":"2023-01-03","SITE":"AFETR","DECAY_DATE":null,"FILE":"3927518","GP_ID":"233438128","TLE_LINE0":"0 KSF3-C","TLE_LINE1":"1 55018U 23001K   23159.13500628  .00011285  00000-0  57853-3 0  9998","TLE_LINE2":"2 55018  97.4766 218.8067 0011204  54.2472 305.9802 15.16674610 23698"},{"CCSDS_OMM_VERS":"2.0","COMMENT":"GENERATED VIA SPACE-TRACK.ORG API","CREATION_DATE":"2023-06-08T14:26:12","ORIGINATOR":"18 SPCS","OBJECT_NAME":"KSF3-C","OBJECT_ID":"2023-001K","CENTER_NAME":"EARTH","REF_FRAME":"TEME","TIME_SYSTEM":"UTC","MEAN_ELEMENT_THEORY":"SGP4","EPOCH":"2023-06-08T09:34:25.673664","MEAN_MOTION":"15.16679942","ECCENTRICITY":"0.00111640","INCLINATION":"97.4766","RA_OF_ASC_NODE":"219.0670","ARG_OF_PERICENTER":"53.2871","MEAN_ANOMALY":"306.9386","EPHEMERIS_TYPE":"0","CLASSIFICATION_TYPE":"U","NORAD_CAT_ID":"55018","ELEMENT_SET_NO":"999","REV_AT_EPOCH":"2373","BSTAR":"0.00058072000000","MEAN_MOTION_DOT":"0.00011330","MEAN_MOTION_DDOT":"0.0000000000000","SEMIMAJOR_AXIS":"6894.020","PERIOD":"94.944","APOAPSIS":"523.582","PERIAPSIS":"508.189","OBJECT_TYPE":"PAYLOAD","RCS_SIZE":"MEDIUM","COUNTRY_CODE":"LUXE","LAUNCH_DATE":"2023-01-03","SITE":"AFETR","DECAY_DATE":null,"FILE":"3927796","GP_ID":"233444283","TLE_LINE0":"0 KSF3-C","TLE_LINE1":"1 55018U 23001K   23159.39890826  .00011330  00000-0  58072-3 0  9993","TLE_LINE2":"2 55018  97.4766 219.0670 0011164  53.2871 306.9386 15.16679942 23734"},{"CCSDS_OMM_VERS":"2.0","COMMENT":"GENERATED VIA SPACE-TRACK.ORG API","CREATION_DATE":"2023-06-08T18:02:28","ORIGINATOR":"18 SPCS","OBJECT_NAME":"KSF3-C","OBJECT_ID":"2023-001K","CENTER_NAME":"EARTH","REF_FRAME":"TEME","TIME_SYSTEM":"UTC","MEAN_ELEMENT_THEORY":"SGP4","EPOCH":"2023-06-08T14:19:26.483520","MEAN_MOTION":"15.16684162","ECCENTRICITY":"0.00111360","INCLINATION":"97.4766","RA_OF_ASC_NODE":"219.2622","ARG_OF_PERICENTER":"52.6033","MEAN_ANOMALY":"307.6212","EPHEMERIS_TYPE":"0","CLASSIFICATION_TYPE":"U","NORAD_CAT_ID":"55018","ELEMENT_SET_NO":"999","REV_AT_EPOCH":"2376","BSTAR":"0.00057722000000","MEAN_MOTION_DOT":"0.00011263","MEAN_MOTION_DDOT":"0.0000000000000","SEMIMAJOR_AXIS":"6894.007","PERIOD":"94.944","APOAPSIS":"523.549","PERIAPSIS":"508.195","OBJECT_TYPE":"PAYLOAD","RCS_SIZE":"MEDIUM","COUNTRY_CODE":"LUXE","LAUNCH_DATE":"2023-01-03","SITE":"AFETR","DECAY_DATE":null,"FILE":"3928007","GP_ID":"233475420","TLE_LINE0":"0 KSF3-C","TLE_LINE1":"1 55018U 23001K   23159.59683430  .00011263  00000-0  57722-3 0  9992","TLE_LINE2":"2 55018  97.4766 219.2622 0011136  52.6033 307.6212 15.16684162 23764"}]